NORAD_CAT_ID,OBJECT_NAME,OBJECT_TYPE,EPOCH,MEAN_MOTION,ECCENTRICITY,INCLINATION,RA_OF_ASC_NODE,ARG_OF_PERICENTER,MEAN_ANOMALY,BSTAR,MEAN_MOTION_DOT,MEAN_MOTION_DDOT,TLE_LINE0,TLE_LINE1,TLE_LINE2,SEMIMAJOR_AXIS,PERIOD,APOGEE,PERIGEE,DECAYED
53278.0,STARLINK-4180,PAYLOAD,2023-05-12 17:37:31,15.0883881,0.0001167,53.2166,136.7422,85.6851,274.4274,5.0423e-05,5.15e-06,0.0,0 STARLINK-4180,1 53278U 22086AN  23132.73439144  .00000515  00000-0  50423-4 0  9998,2 53278  53.2166 136.7422 0001167  85.6851 274.4274 15.08838810 45239,6917.884,95.438,540.556,538.942,0.0
53278.0,STARLINK-4180,PAYLOAD,2023-05-13 09:31:22,15.08841062,0.000113,53.2162,133.7686,86.7132,273.3989,5.959e-05,6.61e-06,0.0,0 STARLINK-4180,1 53278U 22086AN  23133.39678994  .00000661  00000-0  59590-4 0  9995,2 53278  53.2162 133.7686 0001130  86.7132 273.3989 15.08841062 45502,6917.877,95.437,540.524,538.96,0.0
53278.0,STARLINK-4180,PAYLOAD,2023-05-14 06:11:23,15.08839828,0.0001118,53.2163,129.902,88.9201,271.192,7.9458e-05,9.77e-06,0.0,0 STARLINK-4180,1 53278U 22086AN  23134.25791057  .00000977  00000-0  79458-4 0  9992,2 53278  53.2163 129.9020 0001118  88.9201 271.1920 15.08839828 45462,6917.881,95.438,540.519,538.972,0.0
53278.0,STARLINK-4180,PAYLOAD,2023-05-14 10:57:32,15.08840851,0.0001129,53.2163,129.0102,87.7343,272.3778,8.3439e-05,1.04e-05,0.0,0 STARLINK-4180,1 53278U 22086AN  23134.45662966  .00001040  00000-0  83439-4 0  9996,2 53278  53.2163 129.0102 0001129  87.7343 272.3778 15.08840851 45664,6917.878,95.438,540.524,538.962,0.0
53278.0,STARLINK-4180,PAYLOAD,2023-05-15 06:02:10,15.08843184,0.0001149,53.2163,125.4411,90.4534,269.659,8.2789e-05,1.03e-05,0.0,0 STARLINK-4180,1 53278U 22086AN  23135.25150804  .00001030  00000-0  82789-4 0  9994,2 53278  53.2163 125.4411 0001149  90.4534 269.6590 15.08843184 45788,6917.871,95.437,540.531,538.941,0.0
53278.0,STARLINK-4180,PAYLOAD,2023-05-16 05:52:57,15.08837416,0.0001205,53.217,120.981,92.6546,267.4584,1.6336e-05,-2.8e-07,0.0,0 STARLINK-4180,1 53278U 22086AN  23136.24511431 -.00000028  00000-0  16336-4 0  9993,2 53278  53.2170 120.9810 0001205  92.6546 267.4584 15.08837416 45767,6917.888,95.438,540.587,538.92,0.0
53278.0,STARLINK-4180,PAYLOAD,2023-05-16 09:03:44,15.08836773,0.0001203,53.2171,120.3866,92.2411,267.8719,9.6504e-06,-1.34e-06,0.0,0 STARLINK-4180,1 53278U 22086AN  23136.37759508 -.00000134  00000-0  96504-5 0  9990,2 53278  53.2171 120.3866 0001203  92.2411 267.8719 15.08836773 45958,6917.89,95.438,540.587,538.923,0.0
53278.0,STARLINK-4180,PAYLOAD,2023-05-16 15:25:16,15.08836973,0.0001199,53.2172,119.1972,91.9771,268.1358,2.07e-06,-2.55e-06,0.0,0 STARLINK-4180,1 53278U 22086AN  23136.64255528 -.00000255  00000-0  20700-5 0  9992,2 53278  53.2172 119.1972 0001199  91.9771 268.1358 15.08836973 45991,6917.89,95.438,540.584,538.925,0.0
53278.0,STARLINK-4180,PAYLOAD,2023-05-17 08:54:31,15.0883931,0.0001138,53.2168,115.9267,91.3259,268.7864,2.0892e-05,4.5e-07,0.0,0 STARLINK-4180,1 53278U 22086AN  23137.37119392  .00000045  00000-0  20892-4 0  9998,2 53278  53.2168 115.9267 0001138  91.3259 268.7864 15.08839310 45935,6917.882,95.438,540.535,538.96,0.0
53278.0,STARLINK-4180,PAYLOAD,2023-05-17 15:16:03,15.08836422,0.0001103,53.2165,114.7369,89.2281,270.8838,2.0011e-05,3.1e-07,0.0,0 STARLINK-4180,1 53278U 22086AN  23137.63615615  .00000031  00000-0  20011-4 0  9994,2 53278  53.2165 114.7369 0001103  89.2281 270.8838 15.08836422 46145,6917.891,95.438,540.519,538.993,0.0
53278.0,STARLINK-4180,PAYLOAD,2023-05-18 02:23:46,15.08831303,0.0001119,53.2166,112.6559,94.6553,265.4567,2.016e-05,3.3e-07,0.0,0 STARLINK-4180,1 53278U 22086AN  23138.09984094  .00000033  00000-0  20160-4 0  9992,2 53278  53.2166 112.6559 0001119  94.6553 265.4567 15.08831303 46044,6917.907,95.438,540.546,538.998,0.0
53278.0,STARLINK-4180,PAYLOAD,2023-05-18 08:45:18,15.08833736,0.0001134,53.2166,111.4666,94.7429,265.3692,3.711e-05,3.03e-06,0.0,0 STARLINK-4180,1 53278U 22086AN  23138.36479982  .00000303  00000-0  37110-4 0  9990,2 53278  53.2166 111.4666 0001134  94.7429 265.3692 15.08833736 46253,6917.9,95.438,540.549,538.98,0.0
53278.0,STARLINK-4180,PAYLOAD,2023-05-19 02:14:32,15.0884052,0.0001118,53.217,108.1956,91.9417,268.1703,4.3232e-05,4e-06,0.0,0 STARLINK-4180,1 53278U 22086AN  23139.09343688  .00000400  00000-0  43232-4 0  9994,2 53278  53.2170 108.1956 0001118  91.9417 268.1703 15.08840520 46197,6917.879,95.438,540.517,538.97,0.0
53278.0,STARLINK-4180,PAYLOAD,2023-05-19 05:25:19,15.08841771,0.0001124,53.217,107.6009,91.5509,268.5611,5.337e-05,5.62e-06,0.0,0 STARLINK-4180,1 53278U 22086AN  23139.22591591  .00000562  00000-0  53370-4 0  9990,2 53278  53.2170 107.6009 0001124  91.5509 268.5611 15.08841771 46387,6917.875,95.437,540.518,538.962,0.0
53278.0,STARLINK-4180,PAYLOAD,2023-05-20 03:40:43,15.0883845,0.0001136,53.2172,103.4381,85.5646,274.5476,4.4007e-05,4.13e-06,0.0,0 STARLINK-4180,1 53278U 22086AN  23140.15328046  .00000413  00000-0  44007-4 0  9999,2 53278  53.2172 103.4381 0001136  85.5646 274.5476 15.08838450 46357,6917.885,95.438,540.536,538.964,0.0
53278.0,STARLINK-4180,PAYLOAD,2023-05-20 06:51:29,15.08842955,0.0001189,53.2171,102.8435,84.3096,275.8031,8.2053e-05,1.018e-05,0.0,0 STARLINK-4180,1 53278U 22086AN  23140.28575668  .00001018  00000-0  82053-4 0  9992,2 53278  53.2171 102.8435 0001189  84.3096 275.8031 15.08842955 46540,6917.871,95.437,540.559,538.914,0.0
53278.0,STARLINK-4180,PAYLOAD,2023-05-21 06:42:15,15.08853196,0.000125,53.217,98.3808,90.5584,269.5551,0.00013545,1.869e-05,0.0,0 STARLINK-4180,1 53278U 22086AN  23141.27934511  .00001869  00000-0  13545-3 0  9991,2 53278  53.2170  98.3808 0001250  90.5584 269.5551 15.08853196 46526,6917.84,95.437,540.57,538.84,0.0
53278.0,STARLINK-4180,PAYLOAD,2023-05-21 21:00:45,15.08835301,9.14e-05,53.218,95.7061,88.8323,271.2774,-4.7654e-05,-1.046e-05,0.0,0 STARLINK-4180,1 53278U 22086AN  23141.87552228 -.00001046  00000-0 -47654-4 0  9996,2 53278  53.2180  95.7061 0000914  88.8323 271.2774 15.08835301 46789,6917.895,95.438,540.392,539.127,0.0
53278.0,STARLINK-4180,PAYLOAD,2023-05-22 03:22:20,15.08796994,0.0001212,53.2172,94.5149,83.3632,276.7498,-0.00033631,-5.63e-05,0.0,0 STARLINK-4180,1 53278U 22086AN  23142.14051821 -.00005630  00000-0 -33631-3 0  9992,2 53278  53.2172  94.5149 0001212  83.3632 276.7498 15.08796994 46652,6918.012,95.44,540.715,539.038,0.0
53278.0,STARLINK-4180,PAYLOAD,2023-05-22 06:33:05,15.0882233,0.0001356,53.218,93.9201,88.601,271.5138,-0.00011477,-2.113e-05,0.0,0 STARLINK-4180,1 53278U 22086AN  23142.27297928 -.00002113  00000-0 -11477-3 0  9993,2 53278  53.2180  93.9201 0001356  88.6010 271.5138 15.08822330 46670,6917.934,95.439,540.737,538.861,0.0
53278.0,STARLINK-4180,PAYLOAD,2023-05-23 01:37:42,15.08839914,0.0001391,53.2184,90.3559,82.5243,277.5907,-6.3073e-05,-1.292e-05,0.0,0 STARLINK-4180,1 53278U 22086AN  23143.06785166 -.00001292  00000-0 -63073-4 0  9994,2 53278  53.2184  90.3559 0001391  82.5243 277.5907 15.08839914 46790,6917.881,95.438,540.708,538.783,0.0
53278.0,STARLINK-4180,PAYLOAD,2023-05-23 03:13:05,15.08844359,0.0001388,53.2179,90.0581,82.435,277.68,-3.0845e-05,-7.79e-06,0.0,0 STARLINK-4180,1 53278U 22086AN  23143.13408835 -.00000779  00000-0 -30845-4 0  9997,2 53278  53.2179  90.0581 0001388  82.4350 277.6800 15.08844359 46972,6917.867,95.437,540.692,538.772,0.0
53278.0,STARLINK-4180,PAYLOAD,2023-05-24 03:03:51,15.0883009,0.0001434,53.218,85.5977,85.5674,274.5482,0.00059483,9.189e-05,0.0,0 STARLINK-4180,1 53278U 22086AN  23144.12768374  .00009189  00000-0  59483-3 0  9994,2 53278  53.2180  85.5977 0001434  85.5674 274.5482 15.08830090 46954,6917.911,95.438,540.768,538.784,0.0
53278.0,STARLINK-4180,PAYLOAD,2023-05-25 20:23:53,15.08848435,0.0001412,53.2179,77.8659,88.9459,271.1695,-6.9198e-05,-1.389e-05,0.0,0 STARLINK-4180,1 53278U 22086AN  23145.84992882 -.00001389  00000-0 -69198-4 0  9998,2 53278  53.2179  77.8659 0001412  88.9459 271.1695 15.08848435 47386,6917.855,95.437,540.696,538.743,0.0
53278.0,STARLINK-4180,PAYLOAD,2023-05-26 04:20:49,15.08852727,0.0001533,53.2179,76.3801,100.3456,259.7709,-4.0835e-05,-9.38e-06,0.0,0 STARLINK-4180,1 53278U 22086AN  23146.18112278 -.00000938  00000-0 -40835-4 0  9995,2 53278  53.2179  76.3801 0001533 100.3456 259.7709 15.08852727 47263,6917.841,95.437,540.767,538.646,0.0
53278.0,STARLINK-4180,PAYLOAD,2023-05-27 02:36:13,15.08835386,0.0001515,53.2181,72.2176,107.3308,252.7849,4.7143e-05,4.62e-06,0.0,0 STARLINK-4180,1 53278U 22086AN  23147.10849149  .00000462  00000-0  47143-4 0  9991,2 53278  53.2181  72.2176 0001515 107.3308 252.7849 15.08835386 47405,6917.894,95.438,540.808,538.711,0.0
53278.0,STARLINK-4180,PAYLOAD,2023-05-27 12:08:32,15.08840755,0.0001529,53.2185,70.4302,92.4788,267.6379,-4.0762e-05,-9.37e-06,0.0,0 STARLINK-4180,1 53278U 22086AN  23147.50593148 -.00000937  00000-0 -40762-4 0  9999,2 53278  53.2185  70.4302 0001529  92.4788 267.6379 15.08840755 47635,6917.878,95.438,540.801,538.685,0.0
53278.0,STARLINK-4180,PAYLOAD,2023-05-28 04:02:23,15.08842402,0.0001384,53.2177,67.4558,94.7343,265.3807,5.3333e-05,5.61e-06,0.0,0 STARLINK-4180,1 53278U 22086AN  23148.16832921  .00000561  00000-0  53333-4 0  9996,2 53278  53.2177  67.4558 0001384  94.7343 265.3807 15.08842402 47560,6917.873,95.437,540.695,538.781,0.0
53278.0,STARLINK-4180,PAYLOAD,2023-05-29 03:53:10,15.08848251,0.0001318,53.2181,62.9951,95.7333,264.381,0.00015284,2.146e-05,0.0,0 STARLINK-4180,1 53278U 22086AN  23149.16192207  .00002146  00000-0  15284-3 0  9996,2 53278  53.2181  62.9951 0001318  95.7333 264.3810 15.08848251 47885,6917.855,95.437,540.632,538.808,0.0
53278.0,STARLINK-4180,PAYLOAD,2023-05-29 18:11:39,15.08834964,0.0001395,53.2174,60.3202,92.3343,267.7808,3.4998e-05,2.69e-06,0.0,0 STARLINK-4180,1 53278U 22086AN  23149.75809523  .00000269  00000-0  34998-4 0  9995,2 53278  53.2174  60.3202 0001395  92.3343 267.7808 15.08834964 47809,6917.896,95.438,540.726,538.796,0.0
